SL-14 R/B               
1 16792U 86046B   26038.22788162  .00000597  00000+0  66020-4 0  9992
2 16792  82.4817 108.9682 0022332 332.1299  27.8719 14.85560952121881
SL-14 R/B               
1 16882U 86055B   26038.42795867  .00000755  00000+0  84176-4 0  9992
2 16882  82.5232 155.1080 0020338  73.8211 355.0109 14.85610787114878
AJISAI (EGS)            
1 16908U 86061A   26038.51275560 -.00000113  00000+0 -10702-3 0  9994
2 16908  50.0078 186.1416 0011241 209.2912 187.2012 12.44515332464248
COSMOS 1812             
1 17295U 87003A   26038.48485374  .00313006  36482-4  83840-3 0  9990
2 17295  82.4780 229.8566 0001002 330.2711  29.8506 15.94409633139639
SL-14 R/B               
1 17567U 87024B   26038.27239326  .00000628  00000+0  68797-4 0  9996
2 17567  82.5293 121.3514 0018314   6.4505 353.6944 14.86102936 83613
COSMOS 1833             
1 17589U 87027A   26038.42078399  .00000065  00000+0  60373-4 0  9998
2 17589  70.9212  29.6328 0024875 255.0356 104.8012 14.13056233  6049
SL-16 R/B               
1 17590U 87027B   26038.27035013 -.00000144  00000+0 -47822-4 0  9993
2 17590  71.0049 340.5940 0005174 195.4272 164.6695 14.17163716 11036
SL-14 R/B               
1 17912U 87038B   26038.31904873  .00000734  00000+0  82446-4 0  9991
2 17912  82.5042 325.4108 0017692 264.9832  94.9364 14.85339245 74724
COSMOS 1844             
1 17973U 87041A   26038.48797953  .00000381  00000+0  22265-3 0  9999
2 17973  70.8980  97.8823 0028827  66.4483 293.9662 14.14539526999314
SL-14 R/B               
1 18153U 87055B   26038.43597769  .00000736  00000+0  81889-4 0  9995
2 18153  82.4995  17.5406 0022167 111.9283 248.4292 14.85591864 65444
COSMOS 1867             
1 18187U 87060A   26038.40074873  .00000006  00000+0  39907-4 0  9995
2 18187  65.0109  31.5259 0014092 276.3787  83.5692 14.31498057 15606
SL-14 R/B               
1 18749U 88001B   26038.49656218  .00000636  00000+0  70791-4 0  9998
2 18749  82.5105 223.7594 0017589 342.9806  17.0818 14.85491721 37542
