CCSDS_OMM_VERS = 2.0
CREATION_DATE  = 
ORIGINATOR     = 

OBJECT_NAME    = SL-14 R/B
OBJECT_ID      = 1986-046B
CENTER_NAME    = EARTH
REF_FRAME      = TEME
TIME_SYSTEM    = UTC
MEAN_ELEMENT_THEORY = SGP/SGP4

EPOCH          = 2026-02-07T05:28:08.971968
MEAN_MOTION    = 14.85560952
ECCENTRICITY   = .0022332
INCLINATION    = 82.4817
RA_OF_ASC_NODE = 108.9682
ARG_OF_PERICENTER = 332.1299
MEAN_ANOMALY   = 27.8719

EPHEMERIS_TYPE = 0
CLASSIFICATION_TYPE = U
NORAD_CAT_ID   = 16792
ELEMENT_SET_NO = 999
REV_AT_EPOCH   = 12188
BSTAR          = .6602E-4
MEAN_MOTION_DOT = .597E-5
MEAN_MOTION_DDOT = 0

CCSDS_OMM_VERS = 2.0
CREATION_DATE  = 
ORIGINATOR     = 

OBJECT_NAME    = SL-14 R/B
OBJECT_ID      = 1986-055B
CENTER_NAME    = EARTH
REF_FRAME      = TEME
TIME_SYSTEM    = UTC
MEAN_ELEMENT_THEORY = SGP/SGP4

EPOCH          = 2026-02-07T10:16:15.629088
MEAN_MOTION    = 14.85610787
ECCENTRICITY   = .0020338
INCLINATION    = 82.5232
RA_OF_ASC_NODE = 155.1080
ARG_OF_PERICENTER = 73.8211
MEAN_ANOMALY   = 355.0109

EPHEMERIS_TYPE = 0
CLASSIFICATION_TYPE = U
NORAD_CAT_ID   = 16882
ELEMENT_SET_NO = 999
REV_AT_EPOCH   = 11487
BSTAR          = .84176E-4
MEAN_MOTION_DOT = .755E-5
MEAN_MOTION_DDOT = 0

CCSDS_OMM_VERS = 2.0
CREATION_DATE  = 
ORIGINATOR     = 

OBJECT_NAME    = AJISAI (EGS)
OBJECT_ID      = 1986-061A
CENTER_NAME    = EARTH
REF_FRAME      = TEME
TIME_SYSTEM    = UTC
MEAN_ELEMENT_THEORY = SGP/SGP4

EPOCH          = 2026-02-07T12:18:22.083840
MEAN_MOTION    = 12.44515332
ECCENTRICITY   = .0011241
INCLINATION    = 50.0078
RA_OF_ASC_NODE = 186.1416
ARG_OF_PERICENTER = 209.2912
MEAN_ANOMALY   = 187.2012

EPHEMERIS_TYPE = 0
CLASSIFICATION_TYPE = U
NORAD_CAT_ID   = 16908
ELEMENT_SET_NO = 999
REV_AT_EPOCH   = 46424
BSTAR          = -.10702E-3
MEAN_MOTION_DOT = -.113E-5
MEAN_MOTION_DDOT = 0

CCSDS_OMM_VERS = 2.0
CREATION_DATE  = 
ORIGINATOR     = 

OBJECT_NAME    = COSMOS 1812
OBJECT_ID      = 1987-003A
CENTER_NAME    = EARTH
REF_FRAME      = TEME
TIME_SYSTEM    = UTC
MEAN_ELEMENT_THEORY = SGP/SGP4

EPOCH          = 2026-02-07T11:38:11.363136
MEAN_MOTION    = 15.94409633
ECCENTRICITY   = .0001002
INCLINATION    = 82.4780
RA_OF_ASC_NODE = 229.8566
ARG_OF_PERICENTER = 330.2711
MEAN_ANOMALY   = 29.8506

EPHEMERIS_TYPE = 0
CLASSIFICATION_TYPE = U
NORAD_CAT_ID   = 17295
ELEMENT_SET_NO = 999
REV_AT_EPOCH   = 13963
BSTAR          = .8384E-3
MEAN_MOTION_DOT = .313006E-2
MEAN_MOTION_DDOT = .36482E-4

CCSDS_OMM_VERS = 2.0
CREATION_DATE  = 
ORIGINATOR     = 

OBJECT_NAME    = SL-14 R/B
OBJECT_ID      = 1987-024B
CENTER_NAME    = EARTH
REF_FRAME      = TEME
TIME_SYSTEM    = UTC
MEAN_ELEMENT_THEORY = SGP/SGP4

EPOCH          = 2026-02-07T06:32:14.777664
MEAN_MOTION    = 14.86102936
ECCENTRICITY   = .0018314
INCLINATION    = 82.5293
RA_OF_ASC_NODE = 121.3514
ARG_OF_PERICENTER = 6.4505
MEAN_ANOMALY   = 353.6944

EPHEMERIS_TYPE = 0
CLASSIFICATION_TYPE = U
NORAD_CAT_ID   = 17567
ELEMENT_SET_NO = 999
REV_AT_EPOCH   = 8361
BSTAR          = .68797E-4
MEAN_MOTION_DOT = .628E-5
MEAN_MOTION_DDOT = 0

CCSDS_OMM_VERS = 2.0
CREATION_DATE  = 
ORIGINATOR     = 

OBJECT_NAME    = COSMOS 1833
OBJECT_ID      = 1987-027A
CENTER_NAME    = EARTH
REF_FRAME      = TEME
TIME_SYSTEM    = UTC
MEAN_ELEMENT_THEORY = SGP/SGP4

EPOCH          = 2026-02-07T10:05:55.736736
MEAN_MOTION    = 14.13056233
ECCENTRICITY   = .0024875
INCLINATION    = 70.9212
RA_OF_ASC_NODE = 29.6328
ARG_OF_PERICENTER = 255.0356
MEAN_ANOMALY   = 104.8012

EPHEMERIS_TYPE = 0
CLASSIFICATION_TYPE = U
NORAD_CAT_ID   = 17589
ELEMENT_SET_NO = 999
REV_AT_EPOCH   = 604
BSTAR          = .60373E-4
MEAN_MOTION_DOT = .65E-6
MEAN_MOTION_DDOT = 0

CCSDS_OMM_VERS = 2.0
CREATION_DATE  = 
ORIGINATOR     = 

OBJECT_NAME    = SL-16 R/B
OBJECT_ID      = 1987-027B
CENTER_NAME    = EARTH
REF_FRAME      = TEME
TIME_SYSTEM    = UTC
MEAN_ELEMENT_THEORY = SGP/SGP4

EPOCH          = 2026-02-07T06:29:18.251232
MEAN_MOTION    = 14.17163716
ECCENTRICITY   = .0005174
INCLINATION    = 71.0049
RA_OF_ASC_NODE = 340.5940
ARG_OF_PERICENTER = 195.4272
MEAN_ANOMALY   = 164.6695

EPHEMERIS_TYPE = 0
CLASSIFICATION_TYPE = U
NORAD_CAT_ID   = 17590
ELEMENT_SET_NO = 999
REV_AT_EPOCH   = 1103
BSTAR          = -.47822E-4
MEAN_MOTION_DOT = -.144E-5
MEAN_MOTION_DDOT = 0

CCSDS_OMM_VERS = 2.0
CREATION_DATE  = 
ORIGINATOR     = 

OBJECT_NAME    = SL-14 R/B
OBJECT_ID      = 1987-038B
CENTER_NAME    = EARTH
REF_FRAME      = TEME
TIME_SYSTEM    = UTC
MEAN_ELEMENT_THEORY = SGP/SGP4

EPOCH          = 2026-02-07T07:39:25.810272
MEAN_MOTION    = 14.85339245
ECCENTRICITY   = .0017692
INCLINATION    = 82.5042
RA_OF_ASC_NODE = 325.4108
ARG_OF_PERICENTER = 264.9832
MEAN_ANOMALY   = 94.9364

EPHEMERIS_TYPE = 0
CLASSIFICATION_TYPE = U
NORAD_CAT_ID   = 17912
ELEMENT_SET_NO = 999
REV_AT_EPOCH   = 7472
BSTAR          = .82446E-4
MEAN_MOTION_DOT = .734E-5
MEAN_MOTION_DDOT = 0

CCSDS_OMM_VERS = 2.0
CREATION_DATE  = 
ORIGINATOR     = 

OBJECT_NAME    = COSMOS 1844
OBJECT_ID      = 1987-041A
CENTER_NAME    = EARTH
REF_FRAME      = TEME
TIME_SYSTEM    = UTC
MEAN_ELEMENT_THEORY = SGP/SGP4

EPOCH          = 2026-02-07T11:42:41.431392
MEAN_MOTION    = 14.14539526
ECCENTRICITY   = .0028827
INCLINATION    = 70.8980
RA_OF_ASC_NODE = 97.8823
ARG_OF_PERICENTER = 66.4483
MEAN_ANOMALY   = 293.9662

EPHEMERIS_TYPE = 0
CLASSIFICATION_TYPE = U
NORAD_CAT_ID   = 17973
ELEMENT_SET_NO = 999
REV_AT_EPOCH   = 99931
BSTAR          = .22265E-3
MEAN_MOTION_DOT = .381E-5
MEAN_MOTION_DDOT = 0

CCSDS_OMM_VERS = 2.0
CREATION_DATE  = 
ORIGINATOR     = 

OBJECT_NAME    = SL-14 R/B
OBJECT_ID      = 1987-055B
CENTER_NAME    = EARTH
REF_FRAME      = TEME
TIME_SYSTEM    = UTC
MEAN_ELEMENT_THEORY = SGP/SGP4

EPOCH          = 2026-02-07T10:27:48.472416
MEAN_MOTION    = 14.85591864
ECCENTRICITY   = .0022167
INCLINATION    = 82.4995
RA_OF_ASC_NODE = 17.5406
ARG_OF_PERICENTER = 111.9283
MEAN_ANOMALY   = 248.4292

EPHEMERIS_TYPE = 0
CLASSIFICATION_TYPE = U
NORAD_CAT_ID   = 18153
ELEMENT_SET_NO = 999
REV_AT_EPOCH   = 6544
BSTAR          = .81889E-4
MEAN_MOTION_DOT = .736E-5
MEAN_MOTION_DDOT = 0

CCSDS_OMM_VERS = 2.0
CREATION_DATE  = 
ORIGINATOR     = 

OBJECT_NAME    = COSMOS 1867
OBJECT_ID      = 1987-060A
CENTER_NAME    = EARTH
REF_FRAME      = TEME
TIME_SYSTEM    = UTC
MEAN_ELEMENT_THEORY = SGP/SGP4

EPOCH          = 2026-02-07T09:37:04.690272
MEAN_MOTION    = 14.31498057
ECCENTRICITY   = .0014092
INCLINATION    = 65.0109
RA_OF_ASC_NODE = 31.5259
ARG_OF_PERICENTER = 276.3787
MEAN_ANOMALY   = 83.5692

EPHEMERIS_TYPE = 0
CLASSIFICATION_TYPE = U
NORAD_CAT_ID   = 18187
ELEMENT_SET_NO = 999
REV_AT_EPOCH   = 1560
BSTAR          = .39907E-4
MEAN_MOTION_DOT = .6E-7
MEAN_MOTION_DDOT = 0

CCSDS_OMM_VERS = 2.0
CREATION_DATE  = 
ORIGINATOR     = 

OBJECT_NAME    = SL-14 R/B
OBJECT_ID      = 1988-001B
CENTER_NAME    = EARTH
REF_FRAME      = TEME
TIME_SYSTEM    = UTC
MEAN_ELEMENT_THEORY = SGP/SGP4

EPOCH          = 2026-02-07T11:55:02.972352
MEAN_MOTION    = 14.85491721
ECCENTRICITY   = .0017589
INCLINATION    = 82.5105
RA_OF_ASC_NODE = 223.7594
ARG_OF_PERICENTER = 342.9806
MEAN_ANOMALY   = 17.0818

EPHEMERIS_TYPE = 0
CLASSIFICATION_TYPE = U
NORAD_CAT_ID   = 18749
ELEMENT_SET_NO = 999
REV_AT_EPOCH   = 3754
BSTAR          = .70791E-4
MEAN_MOTION_DOT = .636E-5
MEAN_MOTION_DDOT = 0

